{
  "type": "FeatureCollection",
  "features": [
    {
      "type": "Feature",
      "properties": {
        "norad_id": 35759,
        "name": "COSMOS 2251 DEB",
        "group": "cosmos-2251-debris",
        "lat": -7.69069681057726,
        "lon": -153.86798491087274,
        "alt_km": 632.1954741527761,
        "timestamp": "2025-12-16T17:51:11.328983+00:00",
        "meta_object_name": "COSMOS 2251 DEB",
        "meta_object_id": "1993-036ARD",
        "meta_epoch": "2025-12-15T07:28:12.140832",
        "meta_mean_motion": 14.6490066,
        "meta_eccentricity": 0.00771314,
        "meta_inclination": 74.0372,
        "meta_ra_of_asc_node": 211.1013,
        "meta_arg_of_pericenter": 328.7033,
        "meta_mean_anomaly": 30.9554,
        "meta_ephemeris_type": 0,
        "meta_classification_type": "U",
        "meta_norad_cat_id": 35759,
        "meta_element_set_no": 999,
        "meta_rev_at_epoch": 66173,
        "meta_bstar": 0.00024007892,
        "meta_mean_motion_dot": 1.307e-05,
        "meta_mean_motion_ddot": 0,
        "tle_line1": "1 35759U 93036ARD 25349.31125163  .00001307  00000+0  24008-3 0  9992",
        "tle_line2": "2 35759  74.0372 211.1013 0077131 328.7033  30.9554 14.64900660661733"
      },
      "geometry": {
        "type": "Point",
        "coordinates": [
          -153.86798491087274,
          -7.69069681057726
        ]
      }
    },
    {
      "type": "Feature",
      "properties": {
        "norad_id": 35771,
        "name": "COSMOS 2251 DEB",
        "group": "cosmos-2251-debris",
        "lat": -16.080723084813165,
        "lon": -61.40991059208711,
        "alt_km": 884.5621105213941,
        "timestamp": "2025-12-16T17:51:11.328993+00:00",
        "meta_object_name": "COSMOS 2251 DEB",
        "meta_object_id": "1993-036ARR",
        "meta_epoch": "2025-12-15T14:45:16.238592",
        "meta_mean_motion": 14.13430046,
        "meta_eccentricity": 0.02280549,
        "meta_inclination": 74.1561,
        "meta_ra_of_asc_node": 305.27,
        "meta_arg_of_pericenter": 242.9998,
        "meta_mean_anomaly": 114.7698,
        "meta_ephemeris_type": 0,
        "meta_classification_type": "U",
        "meta_norad_cat_id": 35771,
        "meta_element_set_no": 999,
        "meta_rev_at_epoch": 82901,
        "meta_bstar": 0.0026764238,
        "meta_mean_motion_dot": 6.427e-05,
        "meta_mean_motion_ddot": 0,
        "tle_line1": "1 35771U 93036ARR 25349.61477128  .00006427  00000+0  26764-2 0  9998",
        "tle_line2": "2 35771  74.1561 305.2700 0228054 242.9998 114.7698 14.13430046829012"
      },
      "geometry": {
        "type": "Point",
        "coordinates": [
          -61.40991059208711,
          -16.080723084813165
        ]
      }
    },
    {
      "type": "Feature",
      "properties": {
        "norad_id": 35773,
        "name": "COSMOS 2251 DEB",
        "group": "cosmos-2251-debris",
        "lat": -15.357047787246769,
        "lon": 157.65973901286938,
        "alt_km": 676.469782572507,
        "timestamp": "2025-12-16T17:51:11.329004+00:00",
        "meta_object_name": "COSMOS 2251 DEB",
        "meta_object_id": "1993-036ART",
        "meta_epoch": "2025-12-14T09:07:49.552896",
        "meta_mean_motion": 14.62081446,
        "meta_eccentricity": 0.00454772,
        "meta_inclination": 74.0079,
        "meta_ra_of_asc_node": 337.6732,
        "meta_arg_of_pericenter": 137.2699,
        "meta_mean_anomaly": 223.2019,
        "meta_ephemeris_type": 0,
        "meta_classification_type": "U",
        "meta_norad_cat_id": 35773,
        "meta_element_set_no": 999,
        "meta_rev_at_epoch": 86863,
        "meta_bstar": 0.00066463564,
        "meta_mean_motion_dot": 3.359e-05,
        "meta_mean_motion_ddot": 0,
        "tle_line1": "1 35773U 93036ART 25348.38043464  .00003359  00000+0  66464-3 0  9998",
        "tle_line2": "2 35773  74.0079 337.6732 0045477 137.2699 223.2019 14.62081446868635"
      },
      "geometry": {
        "type": "Point",
        "coordinates": [
          157.65973901286938,
          -15.357047787246769
        ]
      }
    },
    {
      "type": "Feature",
      "properties": {
        "norad_id": 35777,
        "name": "COSMOS 2251 DEB",
        "group": "cosmos-2251-debris",
        "lat": 53.264982205236,
        "lon": -20.685764365356036,
        "alt_km": 1400.0106827100044,
        "timestamp": "2025-12-16T17:51:11.329014+00:00",
        "meta_object_name": "COSMOS 2251 DEB",
        "meta_object_id": "1993-036ARX",
        "meta_epoch": "2025-12-14T09:03:39.038688",
        "meta_mean_motion": 13.41304599,
        "meta_eccentricity": 0.04522665,
        "meta_inclination": 73.7708,
        "meta_ra_of_asc_node": 320.1235,
        "meta_arg_of_pericenter": 214.7192,
        "meta_mean_anomaly": 302.0214,
        "meta_ephemeris_type": 0,
        "meta_classification_type": "U",
        "meta_norad_cat_id": 35777,
        "meta_element_set_no": 999,
        "meta_rev_at_epoch": 79706,
        "meta_bstar": 0.00047090118,
        "meta_mean_motion_dot": 4.55e-06,
        "meta_mean_motion_ddot": 0,
        "tle_line1": "1 35777U 93036ARX 25348.37753517  .00000455  00000+0  47090-3 0  9996",
        "tle_line2": "2 35777  73.7708 320.1235 0452266 214.7192 302.0214 13.41304599797060"
      },
      "geometry": {
        "type": "Point",
        "coordinates": [
          -20.685764365356036,
          53.264982205236
        ]
      }
    },
    {
      "type": "Feature",
      "properties": {
        "norad_id": 35784,
        "name": "COSMOS 2251 DEB",
        "group": "cosmos-2251-debris",
        "lat": 36.04141212936212,
        "lon": 94.21065285703159,
        "alt_km": 752.1576415445561,
        "timestamp": "2025-12-16T17:51:11.329024+00:00",
        "meta_object_name": "COSMOS 2251 DEB",
        "meta_object_id": "1993-036ASE",
        "meta_epoch": "2025-12-13T00:15:55.997856",
        "meta_mean_motion": 14.5004387,
        "meta_eccentricity": 0.00418068,
        "meta_inclination": 74.0388,
        "meta_ra_of_asc_node": 89.1969,
        "meta_arg_of_pericenter": 220.0486,
        "meta_mean_anomaly": 139.759,
        "meta_ephemeris_type": 0,
        "meta_classification_type": "U",
        "meta_norad_cat_id": 35784,
        "meta_element_set_no": 999,
        "meta_rev_at_epoch": 65710,
        "meta_bstar": 0.00055772353,
        "meta_mean_motion_dot": 2.158e-05,
        "meta_mean_motion_ddot": 0,
        "tle_line1": "1 35784U 93036ASE 25347.01106479  .00002158  00000+0  55772-3 0  9991",
        "tle_line2": "2 35784  74.0388  89.1969 0041806 220.0486 139.7590 14.50043870657107"
      },
      "geometry": {
        "type": "Point",
        "coordinates": [
          94.21065285703159,
          36.04141212936212
        ]
      }
    },
    {
      "type": "Feature",
      "properties": {
        "norad_id": 35786,
        "name": "COSMOS 2251 DEB",
        "group": "cosmos-2251-debris",
        "lat": -9.567736238370827,
        "lon": -141.18851956587864,
        "alt_km": 655.1738103501211,
        "timestamp": "2025-12-16T17:51:11.329035+00:00",
        "meta_object_name": "COSMOS 2251 DEB",
        "meta_object_id": "1993-036ASG",
        "meta_epoch": "2025-12-15T09:52:44.296320",
        "meta_mean_motion": 14.66258065,
        "meta_eccentricity": 0.00338085,
        "meta_inclination": 74.0143,
        "meta_ra_of_asc_node": 38.6119,
        "meta_arg_of_pericenter": 167.8443,
        "meta_mean_anomaly": 192.355,
        "meta_ephemeris_type": 0,
        "meta_classification_type": "U",
        "meta_norad_cat_id": 35786,
        "meta_element_set_no": 999,
        "meta_rev_at_epoch": 73447,
        "meta_bstar": 0.00061953954,
        "meta_mean_motion_dot": 3.413e-05,
        "meta_mean_motion_ddot": 0,
        "tle_line1": "1 35786U 93036ASG 25349.41162380  .00003413  00000+0  61954-3 0  9996",
        "tle_line2": "2 35786  74.0143  38.6119 0033808 167.8443 192.3550 14.66258065734476"
      },
      "geometry": {
        "type": "Point",
        "coordinates": [
          -141.18851956587864,
          -9.567736238370827
        ]
      }
    },
    {
      "type": "Feature",
      "properties": {
        "norad_id": 35789,
        "name": "COSMOS 2251 DEB",
        "group": "cosmos-2251-debris",
        "lat": 12.368647792020019,
        "lon": 93.4217195235199,
        "alt_km": 802.4721467402151,
        "timestamp": "2025-12-16T17:51:11.329045+00:00",
        "meta_object_name": "COSMOS 2251 DEB",
        "meta_object_id": "1993-036ASK",
        "meta_epoch": "2025-12-15T19:20:38.431968",
        "meta_mean_motion": 14.35988464,
        "meta_eccentricity": 0.00474798,
        "meta_inclination": 74.0382,
        "meta_ra_of_asc_node": 278.741,
        "meta_arg_of_pericenter": 17.3889,
        "meta_mean_anomaly": 342.8876,
        "meta_ephemeris_type": 0,
        "meta_classification_type": "U",
        "meta_norad_cat_id": 35789,
        "meta_element_set_no": 999,
        "meta_rev_at_epoch": 61271,
        "meta_bstar": 0.00012856759,
        "meta_mean_motion_dot": 3.52e-06,
        "meta_mean_motion_ddot": 0,
        "tle_line1": "1 35789U 93036ASK 25349.80600037  .00000352  00000+0  12857-3 0  9995",
        "tle_line2": "2 35789  74.0382 278.7410 0047479  17.3889 342.8876 14.35988464612711"
      },
      "geometry": {
        "type": "Point",
        "coordinates": [
          93.4217195235199,
          12.368647792020019
        ]
      }
    }
  ]
}